NORAD_CAT_ID,OBJECT_NAME,OBJECT_TYPE,EPOCH,MEAN_MOTION,ECCENTRICITY,INCLINATION,RA_OF_ASC_NODE,ARG_OF_PERICENTER,MEAN_ANOMALY,BSTAR,MEAN_MOTION_DOT,MEAN_MOTION_DDOT,TLE_LINE0,TLE_LINE1,TLE_LINE2,SEMIMAJOR_AXIS,PERIOD,APOGEE,PERIGEE,DECAYED
52671.0,STARLINK-4071,PAYLOAD,2023-12-28 14:36:22,15.08838376,0.0001186,53.2158,154.8017,85.1432,274.9696,7.0179e-05,8.29e-06,0.0,0 STARLINK-4071,1 52671U 22053R   23362.60859846  .00000829  00000-0  70179-4 0  9992,2 52671  53.2158 154.8017 0001186  85.1432 274.9696 15.08838376 89955,6917.885,95.438,540.571,538.93,0.0
52671.0,STARLINK-4071,PAYLOAD,2023-12-28 17:47:09,15.08840275,0.0001195,53.2158,154.2068,85.8624,274.2505,8.4438e-05,1.056e-05,0.0,0 STARLINK-4071,1 52671U 22053R   23362.74107699  .00001056  00000-0  84438-4 0  9995,2 52671  53.2158 154.2068 0001195  85.8624 274.2505 15.08840275 89970,6917.88,95.438,540.571,538.918,0.0
52671.0,STARLINK-4071,PAYLOAD,2023-12-29 14:27:10,15.0883767,0.0001289,53.2156,150.3415,73.7773,286.3361,1.8515e-05,7e-08,0.0,0 STARLINK-4071,1 52671U 22053R   23363.60220202  .00000007  00000-0  18515-4 0  9995,2 52671  53.2156 150.3415 0001289  73.7773 286.3361 15.08837670 90102,6917.888,95.438,540.644,538.861,0.0
52671.0,STARLINK-4071,PAYLOAD,2023-12-29 17:37:56,15.08839288,0.0001312,53.2158,149.7468,72.1721,287.9414,3.0297e-05,1.94e-06,0.0,0 STARLINK-4071,1 52671U 22053R   23363.73468082  .00000194  00000-0  30297-4 0  9997,2 52671  53.2158 149.7468 0001312  72.1721 287.9414 15.08839288 89704,6917.883,95.438,540.655,538.84,0.0
52671.0,STARLINK-4071,PAYLOAD,2023-12-30 14:17:56,15.08842773,0.0001288,53.2156,145.8812,74.3991,285.7143,5.8039e-05,6.36e-06,0.0,0 STARLINK-4071,1 52671U 22053R   23364.59579727  .00000636  00000-0  58039-4 0  9996,2 52671  53.2156 145.8812 0001288  74.3991 285.7143 15.08842773 90257,6917.872,95.437,540.628,538.846,0.0
52671.0,STARLINK-4071,PAYLOAD,2023-12-30 15:53:19,15.08843447,0.0001322,53.2155,145.5839,72.6442,287.4694,6.4336e-05,7.36e-06,0.0,0 STARLINK-4071,1 52671U 22053R   23364.66203669  .00000736  00000-0  64336-4 0  9991,2 52671  53.2155 145.5839 0001322  72.6442 287.4694 15.08843447 90263,6917.87,95.437,540.649,538.82,0.0
52671.0,STARLINK-4071,PAYLOAD,2023-12-31 09:22:34,15.08838261,0.0001373,53.2153,142.3138,69.7136,290.4003,3.4626e-05,2.63e-06,0.0,0 STARLINK-4071,1 52671U 22053R   23365.39068101  .00000263  00000-0  34626-4 0  9996,2 52671  53.2153 142.3138 0001373  69.7136 290.4003 15.08838261 89951,6917.886,95.438,540.701,538.801,0.0
52671.0,STARLINK-4071,PAYLOAD,2023-12-31 15:44:07,15.08837819,0.0001283,53.2154,141.1236,76.5051,283.6084,2.6892e-05,1.4e-06,0.0,0 STARLINK-4071,1 52671U 22053R   23365.65564114  .00000140  00000-0  26892-4 0  9990,2 52671  53.2154 141.1236 0001283  76.5051 283.6084 15.08837819 90414,6917.887,95.438,540.64,538.864,0.0
52671.0,STARLINK-4071,PAYLOAD,2024-01-01 12:24:08,15.08839748,0.0001393,53.2164,137.2574,106.3779,253.7366,1.2943e-05,-8.2e-07,0.0,0 STARLINK-4071,1 52671U 22053R   24001.51675939 -.00000082  00000-0  12943-4 0  9999,2 52671  53.2164 137.2574 0001393 106.3779 253.7366 15.08839748 90129,6917.881,95.438,540.71,538.782,0.0
52671.0,STARLINK-4071,PAYLOAD,2024-01-01 13:59:31,15.08840281,0.0001408,53.2166,136.9603,105.8255,254.2892,1.6561e-05,-2.4e-07,0.0,0 STARLINK-4071,1 52671U 22053R   24001.58299884 -.00000024  00000-0  16561-4 0  9993,2 52671  53.2166 136.9603 0001408 105.8255 254.2892 15.08840281 90551,6917.88,95.438,540.719,538.77,0.0
52671.0,STARLINK-4071,PAYLOAD,2024-01-01 18:45:40,15.08843516,0.0001285,53.2158,136.0672,97.2772,262.8366,3.5859e-05,2.83e-06,0.0,0 STARLINK-4071,1 52671U 22053R   24001.78171612  .00000283  00000-0  35859-4 0  9990,2 52671  53.2158 136.0672 0001285  97.2772 262.8366 15.08843516 90588,6917.87,95.437,540.624,538.846,0.0
52671.0,STARLINK-4071,PAYLOAD,2024-01-02 13:50:18,15.08836027,0.0001304,53.216,132.4976,92.7923,267.3218,1.3046e-05,-8e-07,0.0,0 STARLINK-4071,1 52671U 22053R   24002.57660309 -.00000080  00000-0  13046-4 0  9994,2 52671  53.2160 132.4976 0001304  92.7923 267.3218 15.08836027 90707,6917.893,95.438,540.66,538.855,0.0
52671.0,STARLINK-4071,PAYLOAD,2024-01-02 18:36:27,15.08839533,0.0001324,53.2161,131.605,96.1666,263.9477,3.8251e-05,3.21e-06,0.0,0 STARLINK-4071,1 52671U 22053R   24002.77532007  .00000321  00000-0  38251-4 0  9991,2 52671  53.2161 131.6050 0001324  96.1666 263.9477 15.08839533 90317,6917.882,95.438,540.663,538.831,0.0
52671.0,STARLINK-4071,PAYLOAD,2024-01-03 12:05:42,15.08828166,0.0001377,53.2167,128.3324,101.2804,258.8342,3.634e-05,2.9e-06,0.0,0 STARLINK-4071,1 52671U 22053R   24003.50396916  .00000290  00000-0  36340-4 0  9992,2 52671  53.2167 128.3324 0001377 101.2804 258.8342 15.08828166 90426,6917.917,95.438,540.734,538.829,0.0
52671.0,STARLINK-4071,PAYLOAD,2024-01-03 13:41:05,15.08836568,0.000144,53.2163,128.0356,110.4616,249.6531,-2.6264e-05,-7.06e-06,0.0,0 STARLINK-4071,1 52671U 22053R   24003.57020668 -.00000706  00000-0 -26264-4 0  9995,2 52671  53.2163 128.0356 0001440 110.4616 249.6531 15.08836568 90858,6917.891,95.438,540.752,538.76,0.0
52671.0,STARLINK-4071,PAYLOAD,2024-01-04 13:31:52,15.08836972,0.0001334,53.2158,123.5778,96.9458,263.1686,3.8039e-05,3.17e-06,0.0,0 STARLINK-4071,1 52671U 22053R   24004.56380731  .00000317  00000-0  38039-4 0  9994,2 52671  53.2158 123.5778 0001334  96.9458 263.1686 15.08836972 91003,6917.89,95.438,540.677,538.832,0.0
52671.0,STARLINK-4071,PAYLOAD,2024-01-04 16:42:38,15.08887376,0.0001132,53.2164,122.9809,100.7711,259.3408,-0.00050069,-8.258e-05,0.0,0 STARLINK-4071,1 52671U 22053R   24004.69627471 -.00008258  00000-0 -50069-3 0  9993,2 52671  53.2164 122.9809 0001132 100.7711 259.3408 15.08887376 90608,6917.736,95.435,540.384,538.817,0.0
52671.0,STARLINK-4071,PAYLOAD,2024-01-05 13:22:40,15.08834864,0.0001316,53.2159,119.1179,95.241,264.8733,2.9103e-05,1.75e-06,0.0,0 STARLINK-4071,1 52671U 22053R   24005.55741267  .00000175  00000-0  29103-4 0  9993,2 52671  53.2159 119.1179 0001316  95.2410 264.8733 15.08834864 90738,6917.896,95.438,540.671,538.851,0.0
52671.0,STARLINK-4071,PAYLOAD,2024-01-05 14:58:03,15.08836945,0.0001341,53.2162,118.8209,84.0408,276.0737,4.9084e-05,4.93e-06,0.0,0 STARLINK-4071,1 52671U 22053R   24005.62365154  .00000493  00000-0  49084-4 0  9991,2 52671  53.2162 118.8209 0001341  84.0408 276.0737 15.08836945 91162,6917.89,95.438,540.682,538.827,0.0
52671.0,STARLINK-4071,PAYLOAD,2024-01-06 11:38:04,15.08837657,0.000134,53.2163,114.9557,78.897,281.2173,4.1502e-05,3.73e-06,0.0,0 STARLINK-4071,1 52671U 22053R   24006.48477311  .00000373  00000-0  41502-4 0  9999,2 52671  53.2163 114.9557 0001340  78.8970 281.2173 15.08837657 91297,6917.888,95.438,540.68,538.826,0.0
52671.0,STARLINK-4071,PAYLOAD,2024-01-06 16:24:13,15.08845351,0.0001431,53.2166,114.0628,75.3592,284.7559,8.7715e-05,1.109e-05,0.0,0 STARLINK-4071,1 52671U 22053R   24006.68348731  .00001109  00000-0  87715-4 0  9998,2 52671  53.2166 114.0628 0001431  75.3592 284.7559 15.08845351 90906,6917.864,95.437,540.719,538.739,0.0
52671.0,STARLINK-4071,PAYLOAD,2024-01-07 11:28:51,15.08842137,0.0001417,53.216,110.4954,79.9778,280.1374,4.2469e-05,3.88e-06,0.0,0 STARLINK-4071,1 52671U 22053R   24007.47837043  .00000388  00000-0  42469-4 0  9990,2 52671  53.2160 110.4954 0001417  79.9778 280.1374 15.08842137 91020,6917.874,95.437,540.719,538.759,0.0
52671.0,STARLINK-4071,PAYLOAD,2024-01-07 13:04:14,15.08844115,0.0001427,53.216,110.1979,78.894,281.2213,6.6748e-05,7.75e-06,0.0,0 STARLINK-4071,1 52671U 22053R   24007.54460862  .00000775  00000-0  66748-4 0  9995,2 52671  53.2160 110.1979 0001427  78.8940 281.2213 15.08844115 91453,6917.868,95.437,540.72,538.746,0.0
52671.0,STARLINK-4071,PAYLOAD,2024-01-08 12:55:01,15.08840971,0.0001352,53.2157,105.7377,83.0716,277.0429,6.5011e-05,7.47e-06,0.0,0 STARLINK-4071,1 52671U 22053R   24008.53820880  .00000747  00000-0  65011-4 0  9996,2 52671  53.2157 105.7377 0001352  83.0716 277.0429 15.08840971 91602,6917.877,95.437,540.678,538.807,0.0
52671.0,STARLINK-4071,PAYLOAD,2024-01-09 12:45:47,15.08849098,0.0001401,53.2163,101.2758,84.1608,275.9544,3.7397e-05,3.07e-06,0.0,0 STARLINK-4071,1 52671U 22053R   24009.53180383  .00000307  00000-0  37397-4 0  9992,2 52671  53.2163 101.2758 0001401  84.1608 275.9544 15.08849098 91750,6917.853,95.437,540.687,538.748,0.0
52671.0,STARLINK-4071,PAYLOAD,2024-01-10 11:01:12,15.08836726,0.0001324,53.2163,97.1117,88.7402,271.3742,-4.5098e-06,-3.6e-06,0.0,0 STARLINK-4071,1 52671U 22053R   24010.45917276 -.00000360  00000-0 -45098-5 0  9993,2 52671  53.2163  97.1117 0001324  88.7402 271.3742 15.08836726 91471,6917.89,95.438,540.671,538.839,0.0
52671.0,STARLINK-4071,PAYLOAD,2024-01-11 12:27:22,15.0884545,0.0001472,53.2174,92.3572,76.0359,284.0796,6.7727e-05,7.9e-06,0.0,0 STARLINK-4071,1 52671U 22053R   24011.51900576  .00000790  00000-0  67727-4 0  9993,2 52671  53.2174  92.3572 0001472  76.0359 284.0796 15.08845450 92059,6917.864,95.437,540.747,538.71,0.0
52671.0,STARLINK-4071,PAYLOAD,2024-01-12 04:21:14,15.08834744,0.0001475,53.2173,89.3797,109.8988,250.2163,-9.7294e-06,-4.43e-06,0.0,0 STARLINK-4071,1 52671U 22053R   24012.18141685 -.00000443  00000-0 -97294-5 0  9995,2 52671  53.2173  89.3797 0001475 109.8988 250.2163 15.08834744 91730,6917.896,95.438,540.782,538.741,0.0
52671.0,STARLINK-4071,PAYLOAD,2024-01-12 12:18:10,15.08835914,0.0001557,53.2164,87.8955,64.6054,295.5099,3.5644e-05,2.79e-06,0.0,0 STARLINK-4071,1 52671U 22053R   24012.51261834  .00000279  00000-0  35644-4 0  9996,2 52671  53.2164  87.8955 0001557  64.6054 295.5099 15.08835914 92205,6917.893,95.438,540.835,538.681,0.0
52671.0,STARLINK-4071,PAYLOAD,2024-01-13 12:08:56,15.08846076,0.0001592,53.2177,83.4335,77.0366,283.0804,1.3825e-05,-6.8e-07,0.0,0 STARLINK-4071,1 52671U 22053R   24013.50621448 -.00000068  00000-0  13825-4 0  9991,2 52671  53.2177  83.4335 0001592  77.0366 283.0804 15.08846076 91932,6917.862,95.437,540.828,538.625,0.0
